COSMO-SKYMED 2          
1 32376U 07059A   26190.84456272  .00000320  00000+0  46821-4 0  9997
2 32376  97.8891  14.1144 0001422  93.1792 266.9584 14.82147829  5360
COSMO-SKYMED 3          
1 33412U 08054A   26190.85115558  .00002417  00000+0  16502-3 0  9996
2 33412  97.8269  49.7973 0015352 183.2434 176.8696 15.07095704960350
COSMO-SKYMED 4          
1 37216U 10060A   26190.85722118  .00000267  00000+0  40122-4 0  9995
2 37216  97.8897  14.1292 0001481  84.5478 275.5904 14.82145290847926
CYGFM04                 
1 41885U 16078B   26190.83649015  .00025381  00000+0  27151-3 0  9999
2 41885  34.9322  77.0141 0004982  25.1233 334.9734 15.62839197532543
CYGFM02                 
1 41886U 16078C   26190.79223398  .00033425  00000+0  31391-3 0  9996
2 41886  34.9401  71.1594 0005778  28.5918 331.5125 15.66068349532713
CYGFM01                 
1 41887U 16078D   26190.21259684  .00021464  00000+0  27290-3 0  9994
2 41887  34.9387 115.5083 0007085 333.7485  26.2879 15.58363321532146
CYGFM03                 
1 41891U 16078H   26190.76546757  .00023098  00000+0  26220-3 0  9996
2 41891  34.9397  81.0553 0005420  10.0090 350.0742 15.61327759532505
CSG-1                   
1 44873U 19092A   26190.80241514  .00000242  00000+0  36977-4 0  9993
2 44873  97.8894  14.0779 0001502  90.6570 269.4815 14.82148516354823
CSG-2                   
1 51444U 22008A   26190.83612433 -.00000051  00000+0  93116-7 0  9991
2 51444  97.8898  14.1061 0001523  84.9757 275.1630 14.82147479239941
CSG-3                   
1 67304U 26001A   26190.74755735  .00000204  00000+0  32153-4 0  9993
2 67304  97.8893  14.0231 0001499  92.4764 267.6621 14.82149656 27805
